0 OPS 4682 DEB
1 38427U 65027EG  13279.90335447  .00000045  00000-0  13444-3 0  1306
2 38427 090.2706 243.1149 0034733 050.7537 309.6656 12.93753573547658
0 OPS 4682 DEB
1 38427U 65027EG  13286.32239878 -.00000171  00000-0 -64490-3 0  1322
2 38427 090.2730 243.2751 0034125 034.2614 326.0697 12.93755473548495
0 OPS 4682 DEB
1 38427U 65027EG  13292.12272465  .00000381  00000-0  13551-2 0  1339
2 38427 090.2734 243.4184 0033977 020.0901 340.1547 12.93746384549243
0 OPS 4682 DEB
1 38427U 65027EG  13293.28280005 -.00000088  00000-0 -34509-3 0  1340
2 38427 090.2734 243.4461 0033729 017.1738 343.0513 12.93750376549398
